CCSDS_OMM_VERS = 2.0
CREATION_DATE  = 
ORIGINATOR     = 

OBJECT_NAME    = KUIPER-00260
OBJECT_ID      = 2026-030Z
CENTER_NAME    = EARTH
REF_FRAME      = TEME
TIME_SYSTEM    = UTC
MEAN_ELEMENT_THEORY = SGP/SGP4

EPOCH          = 2026-03-06T22:52:56.201664
MEAN_MOTION    = 15.36352838
ECCENTRICITY   = .0001104
INCLINATION    = 51.8794
RA_OF_ASC_NODE = 232.2303
ARG_OF_PERICENTER = 52.6644
MEAN_ANOMALY   = 307.4442

EPHEMERIS_TYPE = 0
CLASSIFICATION_TYPE = U
NORAD_CAT_ID   = 67787
ELEMENT_SET_NO = 999
REV_AT_EPOCH   = 458
BSTAR          = .79247E-3
MEAN_MOTION_DOT = .28249E-3
MEAN_MOTION_DDOT = 0

CCSDS_OMM_VERS = 2.0
CREATION_DATE  = 
ORIGINATOR     = 

OBJECT_NAME    = KUIPER-00262
OBJECT_ID      = 2026-030AA
CENTER_NAME    = EARTH
REF_FRAME      = TEME
TIME_SYSTEM    = UTC
MEAN_ELEMENT_THEORY = SGP/SGP4

EPOCH          = 2026-03-06T22:47:26.685024
MEAN_MOTION    = 15.36624282
ECCENTRICITY   = .0000382
INCLINATION    = 51.8805
RA_OF_ASC_NODE = 232.2085
ARG_OF_PERICENTER = 175.9251
MEAN_ANOMALY   = 184.1739

EPHEMERIS_TYPE = 0
CLASSIFICATION_TYPE = U
NORAD_CAT_ID   = 67788
ELEMENT_SET_NO = 999
REV_AT_EPOCH   = 467
BSTAR          = .99921E-3
MEAN_MOTION_DOT = .36073E-3
MEAN_MOTION_DDOT = 0

CCSDS_OMM_VERS = 2.0
CREATION_DATE  = 
ORIGINATOR     = 

OBJECT_NAME    = KUIPER-00266
OBJECT_ID      = 2026-030AB
CENTER_NAME    = EARTH
REF_FRAME      = TEME
TIME_SYSTEM    = UTC
MEAN_ELEMENT_THEORY = SGP/SGP4

EPOCH          = 2026-03-06T22:54:32.908320
MEAN_MOTION    = 15.30955090
ECCENTRICITY   = .0021872
INCLINATION    = 51.8801
RA_OF_ASC_NODE = 232.9657
ARG_OF_PERICENTER = 66.5249
MEAN_ANOMALY   = 293.8031

EPHEMERIS_TYPE = 0
CLASSIFICATION_TYPE = U
NORAD_CAT_ID   = 67789
ELEMENT_SET_NO = 999
REV_AT_EPOCH   = 466
BSTAR          = .56412E-3
MEAN_MOTION_DOT = .16907E-3
MEAN_MOTION_DDOT = 0

CCSDS_OMM_VERS = 2.0
CREATION_DATE  = 
ORIGINATOR     = 

OBJECT_NAME    = KUIPER-00268
OBJECT_ID      = 2026-030AC
CENTER_NAME    = EARTH
REF_FRAME      = TEME
TIME_SYSTEM    = UTC
MEAN_ELEMENT_THEORY = SGP/SGP4

EPOCH          = 2026-03-06T23:01:01.685856
MEAN_MOTION    = 15.35889677
ECCENTRICITY   = .0002672
INCLINATION    = 51.8842
RA_OF_ASC_NODE = 232.2762
ARG_OF_PERICENTER = 38.2210
MEAN_ANOMALY   = 321.8965

EPHEMERIS_TYPE = 0
CLASSIFICATION_TYPE = U
NORAD_CAT_ID   = 67790
ELEMENT_SET_NO = 999
REV_AT_EPOCH   = 467
BSTAR          = .91093E-3
MEAN_MOTION_DOT = .32063E-3
MEAN_MOTION_DDOT = 0

CCSDS_OMM_VERS = 2.0
CREATION_DATE  = 
ORIGINATOR     = 

OBJECT_NAME    = KUIPER-00270
OBJECT_ID      = 2026-030AD
CENTER_NAME    = EARTH
REF_FRAME      = TEME
TIME_SYSTEM    = UTC
MEAN_ELEMENT_THEORY = SGP/SGP4

EPOCH          = 2026-03-06T23:30:14.408352
MEAN_MOTION    = 15.34539352
ECCENTRICITY   = .0010521
INCLINATION    = 51.8816
RA_OF_ASC_NODE = 232.3958
ARG_OF_PERICENTER = 48.4445
MEAN_ANOMALY   = 311.7441

EPHEMERIS_TYPE = 0
CLASSIFICATION_TYPE = U
NORAD_CAT_ID   = 67791
ELEMENT_SET_NO = 999
REV_AT_EPOCH   = 467
BSTAR          = .98398E-3
MEAN_MOTION_DOT = .33245E-3
MEAN_MOTION_DDOT = 0

CCSDS_OMM_VERS = 2.0
CREATION_DATE  = 
ORIGINATOR     = 

OBJECT_NAME    = KUIPER-00274
OBJECT_ID      = 2026-030AE
CENTER_NAME    = EARTH
REF_FRAME      = TEME
TIME_SYSTEM    = UTC
MEAN_ELEMENT_THEORY = SGP/SGP4

EPOCH          = 2026-03-06T22:39:09.743328
MEAN_MOTION    = 15.30843054
ECCENTRICITY   = .0018444
INCLINATION    = 51.8821
RA_OF_ASC_NODE = 232.9052
ARG_OF_PERICENTER = 62.7641
MEAN_ANOMALY   = 297.5220

EPHEMERIS_TYPE = 0
CLASSIFICATION_TYPE = U
NORAD_CAT_ID   = 67792
ELEMENT_SET_NO = 999
REV_AT_EPOCH   = 466
BSTAR          = -.72852E-3
MEAN_MOTION_DOT = -.2246E-3
MEAN_MOTION_DDOT = 0

CCSDS_OMM_VERS = 2.0
CREATION_DATE  = 
ORIGINATOR     = 

OBJECT_NAME    = KUIPER-00275
OBJECT_ID      = 2026-030AF
CENTER_NAME    = EARTH
REF_FRAME      = TEME
TIME_SYSTEM    = UTC
MEAN_ELEMENT_THEORY = SGP/SGP4

EPOCH          = 2026-03-07T04:07:41.430720
MEAN_MOTION    = 15.34625009
ECCENTRICITY   = .00092
INCLINATION    = 51.8850
RA_OF_ASC_NODE = 231.4487
ARG_OF_PERICENTER = 46.6520
MEAN_ANOMALY   = 313.5231

EPHEMERIS_TYPE = 0
CLASSIFICATION_TYPE = U
NORAD_CAT_ID   = 67793
ELEMENT_SET_NO = 999
REV_AT_EPOCH   = 470
BSTAR          = .96475E-3
MEAN_MOTION_DOT = .32662E-3
MEAN_MOTION_DDOT = 0

CCSDS_OMM_VERS = 2.0
CREATION_DATE  = 
ORIGINATOR     = 

OBJECT_NAME    = KUIPER-00276
OBJECT_ID      = 2026-030AG
CENTER_NAME    = EARTH
REF_FRAME      = TEME
TIME_SYSTEM    = UTC
MEAN_ELEMENT_THEORY = SGP/SGP4

EPOCH          = 2026-03-07T00:18:43.894656
MEAN_MOTION    = 15.30670609
ECCENTRICITY   = .0019243
INCLINATION    = 51.8812
RA_OF_ASC_NODE = 232.6161
ARG_OF_PERICENTER = 59.1102
MEAN_ANOMALY   = 301.1771

EPHEMERIS_TYPE = 0
CLASSIFICATION_TYPE = U
NORAD_CAT_ID   = 67794
ELEMENT_SET_NO = 999
REV_AT_EPOCH   = 467
BSTAR          = -.21428E-2
MEAN_MOTION_DOT = -.64665E-3
MEAN_MOTION_DDOT = 0

CCSDS_OMM_VERS = 2.0
CREATION_DATE  = 
ORIGINATOR     = 

OBJECT_NAME    = KUIPER-00279
OBJECT_ID      = 2026-030AH
CENTER_NAME    = EARTH
REF_FRAME      = TEME
TIME_SYSTEM    = UTC
MEAN_ELEMENT_THEORY = SGP/SGP4

EPOCH          = 2026-03-06T23:15:36.732960
MEAN_MOTION    = 15.35281783
ECCENTRICITY   = .0006544
INCLINATION    = 51.8802
RA_OF_ASC_NODE = 232.3302
ARG_OF_PERICENTER = 40.3879
MEAN_ANOMALY   = 319.7591

EPHEMERIS_TYPE = 0
CLASSIFICATION_TYPE = U
NORAD_CAT_ID   = 67795
ELEMENT_SET_NO = 999
REV_AT_EPOCH   = 467
BSTAR          = .69096E-3
MEAN_MOTION_DOT = .2374E-3
MEAN_MOTION_DDOT = 0

CCSDS_OMM_VERS = 2.0
CREATION_DATE  = 
ORIGINATOR     = 

OBJECT_NAME    = CREW DRAGON 12
OBJECT_ID      = 2026-031A
CENTER_NAME    = EARTH
REF_FRAME      = TEME
TIME_SYSTEM    = UTC
MEAN_ELEMENT_THEORY = SGP/SGP4

EPOCH          = 2026-03-06T20:49:01.409088
MEAN_MOTION    = 15.48482048
ECCENTRICITY   = .0008109
INCLINATION    = 51.6318
RA_OF_ASC_NODE = 86.3097
ARG_OF_PERICENTER = 164.5613
MEAN_ANOMALY   = 195.5624

EPHEMERIS_TYPE = 0
CLASSIFICATION_TYPE = U
NORAD_CAT_ID   = 67796
ELEMENT_SET_NO = 999
REV_AT_EPOCH   = 55577
BSTAR          = .16627E-3
MEAN_MOTION_DOT = .8564E-4
MEAN_MOTION_DDOT = 0

CCSDS_OMM_VERS = 2.0
CREATION_DATE  = 
ORIGINATOR     = 

OBJECT_NAME    = STARLINK-36800
OBJECT_ID      = 2026-032A
CENTER_NAME    = EARTH
REF_FRAME      = TEME
TIME_SYSTEM    = UTC
MEAN_ELEMENT_THEORY = SGP/SGP4

EPOCH          = 2026-03-07T03:39:29.126016
MEAN_MOTION    = 15.75245747
ECCENTRICITY   = .0001615
INCLINATION    = 97.2841
RA_OF_ASC_NODE = 252.5093
ARG_OF_PERICENTER = 88.3945
MEAN_ANOMALY   = 271.7506

EPHEMERIS_TYPE = 0
CLASSIFICATION_TYPE = U
NORAD_CAT_ID   = 67797
ELEMENT_SET_NO = 999
REV_AT_EPOCH   = 438
BSTAR          = .95567E-3
MEAN_MOTION_DOT = .145214E-2
MEAN_MOTION_DDOT = 0

CCSDS_OMM_VERS = 2.0
CREATION_DATE  = 
ORIGINATOR     = 

OBJECT_NAME    = STARLINK-36798
OBJECT_ID      = 2026-032B
CENTER_NAME    = EARTH
REF_FRAME      = TEME
TIME_SYSTEM    = UTC
MEAN_ELEMENT_THEORY = SGP/SGP4

EPOCH          = 2026-03-07T04:00:03.000096
MEAN_MOTION    = 15.75177006
ECCENTRICITY   = .0001486
INCLINATION    = 97.2856
RA_OF_ASC_NODE = 252.5654
ARG_OF_PERICENTER = 93.2427
MEAN_ANOMALY   = 79.8131

EPHEMERIS_TYPE = 0
CLASSIFICATION_TYPE = U
NORAD_CAT_ID   = 67798
ELEMENT_SET_NO = 999
REV_AT_EPOCH   = 431
BSTAR          = .11393E-3
MEAN_MOTION_DOT = .16888E-3
MEAN_MOTION_DDOT = 0

CCSDS_OMM_VERS = 2.0
CREATION_DATE  = 
ORIGINATOR     = 

OBJECT_NAME    = STARLINK-36804
OBJECT_ID      = 2026-032C
CENTER_NAME    = EARTH
REF_FRAME      = TEME
TIME_SYSTEM    = UTC
MEAN_ELEMENT_THEORY = SGP/SGP4

EPOCH          = 2026-03-07T03:36:56.413152
MEAN_MOTION    = 15.75259673
ECCENTRICITY   = .0000906
INCLINATION    = 97.2841
RA_OF_ASC_NODE = 252.5119
ARG_OF_PERICENTER = 68.9614
MEAN_ANOMALY   = 291.1748

EPHEMERIS_TYPE = 0
CLASSIFICATION_TYPE = U
NORAD_CAT_ID   = 67799
ELEMENT_SET_NO = 999
REV_AT_EPOCH   = 438
BSTAR          = .17246E-2
MEAN_MOTION_DOT = .266092E-2
MEAN_MOTION_DDOT = 0

CCSDS_OMM_VERS = 2.0
CREATION_DATE  = 
ORIGINATOR     = 

OBJECT_NAME    = STARLINK-36354
OBJECT_ID      = 2026-032D
CENTER_NAME    = EARTH
REF_FRAME      = TEME
TIME_SYSTEM    = UTC
MEAN_ELEMENT_THEORY = SGP/SGP4

EPOCH          = 2026-03-07T03:21:11.419200
MEAN_MOTION    = 15.75257774
ECCENTRICITY   = .0001444
INCLINATION    = 97.2852
RA_OF_ASC_NODE = 252.5286
ARG_OF_PERICENTER = 77.0819
MEAN_ANOMALY   = 283.0608

EPHEMERIS_TYPE = 0
CLASSIFICATION_TYPE = U
NORAD_CAT_ID   = 67800
ELEMENT_SET_NO = 999
REV_AT_EPOCH   = 438
BSTAR          = .97195E-3
MEAN_MOTION_DOT = .147812E-2
MEAN_MOTION_DDOT = 0

CCSDS_OMM_VERS = 2.0
CREATION_DATE  = 
ORIGINATOR     = 

OBJECT_NAME    = STARLINK-36773
OBJECT_ID      = 2026-032E
CENTER_NAME    = EARTH
REF_FRAME      = TEME
TIME_SYSTEM    = UTC
MEAN_ELEMENT_THEORY = SGP/SGP4

EPOCH          = 2026-03-07T03:32:22.285824
MEAN_MOTION    = 15.75227896
ECCENTRICITY   = .0001529
INCLINATION    = 97.2845
RA_OF_ASC_NODE = 252.5160
ARG_OF_PERICENTER = 68.9822
MEAN_ANOMALY   = 291.1607

EPHEMERIS_TYPE = 0
CLASSIFICATION_TYPE = U
NORAD_CAT_ID   = 67801
ELEMENT_SET_NO = 999
REV_AT_EPOCH   = 438
BSTAR          = .72753E-3
MEAN_MOTION_DOT = .109974E-2
MEAN_MOTION_DDOT = 0

